OBJECT_NAME,OBJECT_ID,EPOCH,MEAN_MOTION,ECCENTRICITY,INCLINATION,RA_OF_ASC_NODE,ARG_OF_PERICENTER,MEAN_ANOMALY,EPHEMERIS_TYPE,CLASSIFICATION_TYPE,NORAD_CAT_ID,ELEMENT_SET_NO,REV_AT_EPOCH,BSTAR,MEAN_MOTION_DOT,MEAN_MOTION_DDOT
ONEWEB-0572,2023-004M,2026-07-19T22:39:28.224288,13.17648186,.0002002,87.9151,359.3488,91.6803,268.4558,0,U,55151,999,17179,-.25921681E-3,-.88E-6,0
ONEWEB-0573,2023-004N,2026-07-20T02:54:35.578368,13.18684988,.00027246,87.9194,328.9194,92.7147,267.4297,0,U,55152,999,17403,.2904764E-3,.127E-5,0
ONEWEB-0588,2023-004P,2026-07-19T21:17:06.248832,13.18686433,.00020558,87.9191,328.9650,86.1399,273.9968,0,U,55153,999,17400,-.1124508E-4,.8E-7,0
ONEWEB-0598,2023-004Q,2026-07-20T04:43:19.814304,13.11416352,.00025554,87.8888,14.4950,96.0346,264.1074,0,U,55154,999,17022,-.13370878E-2,-.461E-5,0
ONEWEB-0599,2023-004R,2026-07-20T03:11:37.106304,13.17648350,.00019453,87.9151,359.3100,100.2500,259.8851,0,U,55155,999,17182,-.4103162E-3,-.146E-5,0
ONEWEB-0614,2023-004S,2026-07-20T04:36:00.354528,13.11415585,.00016934,87.8885,14.5040,85.1564,274.9757,0,U,55156,999,17016,-.10638774E-2,-.364E-5,0
ONEWEB-0616,2023-004T,2026-07-19T22:44:19.280832,13.17648012,.00020002,87.9151,359.3512,121.5438,238.5889,0,U,55157,999,17201,-.39104985E-3,-.139E-5,0
ONEWEB-0617,2023-004U,2026-07-20T00:39:10.532736,13.11415559,.00018473,87.8890,14.5300,77.8487,282.2848,0,U,55158,999,17016,.28529022E-3,.114E-5,0
ONEWEB-0618,2023-004V,2026-07-19T22:10:08.717664,15.13431642,.00129601,86.9107,164.3423,158.6009,201.5776,0,U,55159,999,18721,.214432E-3,.387E-4,0
ONEWEB-0619,2023-004W,2026-07-19T23:30:29.416032,13.17649007,.00014202,87.9166,359.3281,94.2020,265.9274,0,U,55160,999,17191,-.4409566E-3,-.158E-5,0
ONEWEB-0620,2023-004X,2026-07-20T06:01:28.019136,13.11415612,.00021057,87.8885,14.4918,89.6804,270.4565,0,U,55161,999,17016,.94497474E-3,.348E-5,0
ONEWEB-0621,2023-004Y,2026-07-20T04:50:39.445152,13.11416275,.00016427,87.8900,14.4927,84.6318,275.4998,0,U,55162,999,17013,-.16078078E-2,-.557E-5,0
ONEWEB-0622,2023-004Z,2026-07-19T23:28:22.808064,13.11417617,.00020493,87.8896,14.5414,70.2324,289.9025,0,U,55163,999,17009,-.122945E-2,-.423E-5,0
ONEWEB-0623,2023-004AA,2026-07-20T04:51:15.429888,13.17648849,.00014332,87.9150,359.3101,71.2902,288.8385,0,U,55164,999,17193,.26709188E-3,.117E-5,0
ONEWEB-0624,2023-004AB,2026-07-20T02:48:43.252992,13.12928647,.00017595,87.8973,344.0327,92.4841,267.6490,0,U,55165,999,17239,-.10828674E-2,-.38E-5,0
ONEWEB-0625,2023-004AC,2026-07-19T23:08:37.610016,13.17647892,.00017793,87.9151,359.3540,98.2118,261.9215,0,U,55166,999,17189,.27953378E-4,.24E-6,0
ONEWEB-0626,2023-004AD,2026-07-19T22:54:03.905568,13.17647893,.0002201,87.9152,359.3554,97.1735,262.9647,0,U,55167,999,17189,-.22059084E-3,-.73E-6,0
ONEWEB-0627,2023-004AE,2026-07-19T22:37:03.061056,13.17648565,.00015685,87.9151,359.3582,79.4422,280.6887,0,U,55168,999,17189,.10387844E-3,.53E-6,0
ONEWEB-0628,2023-004AF,2026-07-19T21:10:07.332384,13.12439253,.00013214,87.8977,344.1533,83.1867,276.9412,0,U,55169,999,17232,-.8493832E-3,-.293E-5,0
ONEWEB-0629,2023-004AG,2026-07-19T23:51:09.324288,13.17650637,.00015272,87.9152,359.3436,95.0643,265.0663,0,U,55170,999,17190,.12677885E-3,.62E-6,0
ONEWEB-0631,2023-004AH,2026-07-19T21:07:23.579328,13.18687013,.00022473,87.9204,328.9356,89.7363,270.4027,0,U,55171,999,17398,-.1536191E-3,-.48E-6,0
ONEWEB-0709,2023-004AJ,2026-07-20T05:46:49.927296,13.11417435,.00027237,87.8886,14.4962,95.8481,264.2957,0,U,55172,999,17020,.14828997E-2,.538E-5,0
ONEWEB-0710,2023-004AK,2026-07-20T03:50:30.816096,13.17648452,.00018622,87.9151,359.3061,88.3265,271.8080,0,U,55173,999,17192,-.86110198E-4,-.21E-6,0
ONEWEB-0711,2023-004AL,2026-07-20T05:05:18.452832,13.11417852,.00017121,87.8891,14.4906,68.2230,291.9080,0,U,55174,999,17016,-.12797077E-2,-.441E-5,0
ONEWEB-0713,2023-004AM,2026-07-20T05:32:11.069088,13.11417986,.00017582,87.8891,14.4887,79.6097,280.5229,0,U,55175,999,17015,.10695236E-2,.392E-5,0
ONEWEB-0715,2023-004AN,2026-07-20T05:24:51.484032,13.11418033,.00025271,87.8890,14.4900,87.8041,272.3376,0,U,55176,999,17019,.6119804E-3,.23E-5,0
ONEWEB-0716,2023-004AP,2026-07-20T03:40:47.539200,13.17648761,.00018257,87.9151,359.3102,100.8940,259.2398,0,U,55177,999,17192,-.14522201E-4,.7E-7,0
ONEWEB-0717,2023-004AQ,2026-07-19T23:37:47.285184,13.17649192,.00019571,87.9161,359.3342,78.5723,281.5629,0,U,55178,999,17195,-.51390545E-3,-.187E-5,0
ONEWEB-0719,2023-004AR,2026-07-19T23:52:21.622080,13.17648291,.00017025,87.9161,359.3126,98.2803,261.8522,0,U,55179,999,17190,.12256598E-3,.6E-6,0
ONEWEB-0530,2023-029A,2026-07-20T02:52:37.784928,13.20771252,.00017362,87.9172,267.9036,88.0506,272.0826,0,U,55796,999,16549,-.23128538E-3,-.81E-6,0
