ONEWEB-0572             
1 55151U 23004M   26200.94407667 -.00000088  00000+0 -25922-3 0  9999
2 55151  87.9151 359.3488 0002002  91.6803 268.4558 13.17648186171799
ONEWEB-0573             
1 55152U 23004N   26201.12124512  .00000127  00000+0  29048-3 0  9991
2 55152  87.9194 328.9194 0002724  92.7147 267.4297 13.18684988174037
ONEWEB-0588             
1 55153U 23004P   26200.88687788  .00000008  00000+0 -11245-4 0  9993
2 55153  87.9191 328.9650 0002055  86.1399 273.9968 13.18686433174006
ONEWEB-0598             
1 55154U 23004Q   26201.19675711 -.00000461  00000+0 -13371-2 0  9996
2 55154  87.8888  14.4950 0002555  96.0346 264.1074 13.11416352170220
ONEWEB-0599             
1 55155U 23004R   26201.13306836 -.00000146  00000+0 -41032-3 0  9996
2 55155  87.9151 359.3100 0001945 100.2500 259.8851 13.17648350171827
ONEWEB-0614             
1 55156U 23004S   26201.19167077 -.00000364  00000+0 -10639-2 0  9995
2 55156  87.8885  14.5040 0001693  85.1564 274.9757 13.11415585170160
ONEWEB-0616             
1 55157U 23004T   26200.94744538 -.00000139  00000+0 -39105-3 0  9991
2 55157  87.9151 359.3512 0002000 121.5438 238.5889 13.17648012172017
ONEWEB-0617             
1 55158U 23004U   26201.02720524  .00000114  00000+0  28529-3 0  9990
2 55158  87.8890  14.5300 0001847  77.8487 282.2848 13.11415559170164
ONEWEB-0618             
1 55159U 23004V   26200.92371201  .00003870  00000+0  21443-3 0  9993
2 55159  86.9107 164.3423 0012960 158.6009 201.5776 15.13431642187215
ONEWEB-0619             
1 55160U 23004W   26200.97950713 -.00000158  00000+0 -44096-3 0  9998
2 55160  87.9166 359.3281 0001420  94.2020 265.9274 13.17649007171913
ONEWEB-0620             
1 55161U 23004X   26201.25101874  .00000348  00000+0  94497-3 0  9996
2 55161  87.8885  14.4918 0002105  89.6804 270.4565 13.11415612170163
ONEWEB-0621             
1 55162U 23004Y   26201.20184543 -.00000557  00000+0 -16078-2 0  9998
2 55162  87.8900  14.4927 0001642  84.6318 275.4998 13.11416275170130
ONEWEB-0622             
1 55163U 23004Z   26200.97804176 -.00000423  00000+0 -12294-2 0  9991
2 55163  87.8896  14.5414 0002049  70.2324 289.9025 13.11417617170094
ONEWEB-0623             
1 55164U 23004AA  26201.20226192  .00000117  00000+0  26709-3 0  9990
2 55164  87.9150 359.3101 0001433  71.2902 288.8385 13.17648849171931
ONEWEB-0624             
1 55165U 23004AB  26201.11716728 -.00000380  00000+0 -10829-2 0  9999
2 55165  87.8973 344.0327 0001759  92.4841 267.6490 13.12928647172398
ONEWEB-0625             
1 55166U 23004AC  26200.96432419  .00000024  00000+0  27953-4 0  9995
2 55166  87.9151 359.3540 0001779  98.2118 261.9215 13.17647892171898
ONEWEB-0626             
1 55167U 23004AD  26200.95421187 -.00000073  00000+0 -22059-3 0  9992
2 55167  87.9152 359.3554 0002201  97.1735 262.9647 13.17647893171890
ONEWEB-0627             
1 55168U 23004AE  26200.94239654  .00000053  00000+0  10388-3 0  9996
2 55168  87.9151 359.3582 0001568  79.4422 280.6887 13.17648565171892
ONEWEB-0628             
1 55169U 23004AF  26200.88202931 -.00000293  00000+0 -84938-3 0  9998
2 55169  87.8977 344.1533 0001321  83.1867 276.9412 13.12439253172326
ONEWEB-0629             
1 55170U 23004AG  26200.99385792  .00000062  00000+0  12678-3 0  9993
2 55170  87.9152 359.3436 0001527  95.0643 265.0663 13.17650637171902
ONEWEB-0631             
1 55171U 23004AH  26200.88013402 -.00000048  00000+0 -15362-3 0  9997
2 55171  87.9204 328.9356 0002247  89.7363 270.4027 13.18687013173986
ONEWEB-0709             
1 55172U 23004AJ  26201.24085564  .00000538  00000+0  14829-2 0  9995
2 55172  87.8886  14.4962 0002723  95.8481 264.2957 13.11417435170207
ONEWEB-0710             
1 55173U 23004AK  26201.16007889 -.00000021  00000+0 -86110-4 0  9994
2 55173  87.9151 359.3061 0001862  88.3265 271.8080 13.17648452171927
ONEWEB-0711             
1 55174U 23004AL  26201.21201913 -.00000441  00000+0 -12797-2 0  9999
2 55174  87.8891  14.4906 0001712  68.2230 291.9080 13.11417852170168
ONEWEB-0713             
1 55175U 23004AM  26201.23068367  .00000392  00000+0  10695-2 0  9994
2 55175  87.8891  14.4887 0001758  79.6097 280.5229 13.11417986170150
ONEWEB-0715             
1 55176U 23004AN  26201.22559588  .00000230  00000+0  61198-3 0  9990
2 55176  87.8890  14.4900 0002527  87.8041 272.3376 13.11418033170191
ONEWEB-0716             
1 55177U 23004AP  26201.15332800  .00000007  00000+0 -14522-4 0  9992
2 55177  87.9151 359.3102 0001825 100.8940 259.2398 13.17648761171921
ONEWEB-0717             
1 55178U 23004AQ  26200.98457506 -.00000187  00000+0 -51391-3 0  9998
2 55178  87.9161 359.3342 0001957  78.5723 281.5629 13.17649192171952
ONEWEB-0719             
1 55179U 23004AR  26200.99469470  .00000060  00000+0  12257-3 0  9999
2 55179  87.9161 359.3126 0001702  98.2803 261.8522 13.17648291171906
ONEWEB-0530             
1 55796U 23029A   26201.11988177 -.00000081  00000+0 -23129-3 0  9991
2 55796  87.9172 267.9036 0001736  88.0506 272.0826 13.20771252165497
